NORAD_CAT_ID,OBJECT_NAME,OBJECT_TYPE,EPOCH,MEAN_MOTION,ECCENTRICITY,INCLINATION,RA_OF_ASC_NODE,ARG_OF_PERICENTER,MEAN_ANOMALY,BSTAR,MEAN_MOTION_DOT,MEAN_MOTION_DDOT,TLE_LINE0,TLE_LINE1,TLE_LINE2,SEMIMAJOR_AXIS,PERIOD,APOGEE,PERIGEE,DECAYED
53965.0,STARLINK-4578,PAYLOAD,2024-05-27 13:43:08,15.08838517,0.0001523,53.2181,267.2287,78.3468,281.7695,0.00016115,2.278e-05,0.0,0 STARLINK-4578,1 53965U 22125B   24148.57162167  .00002278  00000-0  16115-3 0  9990,2 53965  53.2181 267.2287 0001523  78.3468 281.7695 15.08838517 91027,6917.885,95.438,540.804,538.696,0.0
53965.0,STARLINK-4578,PAYLOAD,2024-05-27 16:53:54,15.0884399,0.0001545,53.2181,266.6327,79.661,280.4557,0.0002297,3.37e-05,0.0,0 STARLINK-4578,1 53965U 22125B   24148.70409902  .00003370  00000-0  22970-3 0  9996,2 53965  53.2181 266.6327 0001545  79.6610 280.4557 15.08843990 91116,6917.868,95.437,540.802,538.664,0.0
53965.0,STARLINK-4578,PAYLOAD,2024-05-28 13:33:54,15.08851279,0.0001515,53.2181,262.7701,90.9473,269.1692,7.7033e-05,9.39e-06,0.0,0 STARLINK-4578,1 53965U 22125B   24149.56521387  .00000939  00000-0  77033-4 0  9992,2 53965  53.2181 262.7701 0001515  90.9473 269.1692 15.08851279 91178,6917.846,95.437,540.759,538.663,0.0
53965.0,STARLINK-4578,PAYLOAD,2024-05-28 15:09:17,15.08850582,0.0001416,53.2171,262.4679,91.2855,268.83,0.00021116,3.075e-05,0.0,0 STARLINK-4578,1 53965U 22125B   24149.63145401  .00003075  00000-0  21116-3 0  9993,2 53965  53.2171 262.4679 0001416  91.2855 268.8300 15.08850582 91185,6917.848,95.437,540.693,538.733,0.0
53965.0,STARLINK-4578,PAYLOAD,2024-05-29 11:49:19,15.08839094,0.0001383,53.2179,258.6049,85.102,275.013,-1.0634e-05,-4.57e-06,0.0,0 STARLINK-4578,1 53965U 22125B   24150.49258125 -.00000457  00000-0 -10634-4 0  9994,2 53965  53.2179 258.6049 0001383  85.1020 275.0130 15.08839094 91388,6917.883,95.438,540.705,538.791,0.0
53965.0,STARLINK-4578,PAYLOAD,2024-05-29 13:24:42,15.08839284,0.0001451,53.2174,258.3079,79.2607,280.8548,-4.7419e-06,-3.63e-06,0.0,0 STARLINK-4578,1 53965U 22125B   24150.55882156 -.00000363  00000-0 -47419-5 0  9996,2 53965  53.2174 258.3079 0001451  79.2607 280.8548 15.08839284 91326,6917.883,95.438,540.751,538.744,0.0
53965.0,STARLINK-4578,PAYLOAD,2024-05-29 15:00:05,15.08839872,0.0001474,53.2174,258.0106,78.675,281.4408,7.5975e-06,-1.67e-06,0.0,0 STARLINK-4578,1 53965U 22125B   24150.62506143 -.00000167  00000-0  75975-5 0  9992,2 53965  53.2174 258.0106 0001474  78.6750 281.4408 15.08839872 91337,6917.881,95.438,540.765,538.726,0.0
53965.0,STARLINK-4578,PAYLOAD,2024-05-30 11:40:05,15.08850901,0.0001358,53.2167,254.1451,82.2869,277.8277,0.0001629,2.306e-05,0.0,0 STARLINK-4578,1 53965U 22125B   24151.48617745  .00002306  00000-0  16290-3 0  9997,2 53965  53.2167 254.1451 0001358  82.2869 277.8277 15.08850901 91465,6917.847,95.437,540.652,538.773,0.0
53965.0,STARLINK-4578,PAYLOAD,2024-05-31 13:06:15,15.08849779,0.00015,53.2171,249.3886,76.1582,283.9577,0.0002941,4.397e-05,0.0,0 STARLINK-4578,1 53965U 22125B   24152.54601838  .00004397  00000-0  29410-3 0  9991,2 53965  53.2171 249.3886 0001500  76.1582 283.9577 15.08849779 91698,6917.85,95.437,540.753,538.678,0.0
53965.0,STARLINK-4578,PAYLOAD,2024-06-01 12:57:02,15.08843281,0.0001278,53.217,244.9274,92.4625,267.6513,1.8547e-05,7e-08,0.0,0 STARLINK-4578,1 53965U 22125B   24153.53961755  .00000007  00000-0  18547-4 0  9992,2 53965  53.2170 244.9274 0001278  92.4625 267.6513 15.08843281 91848,6917.87,95.437,540.619,538.851,0.0
53965.0,STARLINK-4578,PAYLOAD,2024-06-02 04:50:54,15.08837904,0.0001146,53.217,241.9518,90.7563,269.356,-6.0928e-07,-2.98e-06,0.0,0 STARLINK-4578,1 53965U 22125B   24154.20202304 -.00000298  00000-0 -60928-6 0  9991,2 53965  53.2170 241.9518 0001146  90.7563 269.3560 15.08837904 91949,6917.887,95.438,540.545,538.959,0.0
53965.0,STARLINK-4578,PAYLOAD,2024-06-02 12:47:50,15.08843094,0.0001184,53.2178,240.4671,95.4043,264.7084,6.1331e-05,6.88e-06,0.0,0 STARLINK-4578,1 53965U 22125B   24154.53321821  .00000688  00000-0  61331-4 0  9991,2 53965  53.2178 240.4671 0001184  95.4043 264.7084 15.08843094 91923,6917.871,95.437,540.555,538.917,0.0
53965.0,STARLINK-4578,PAYLOAD,2024-06-02 22:20:08,15.08842115,0.0001159,53.2178,238.6833,93.7606,266.3518,4.7806e-05,4.73e-06,0.0,0 STARLINK-4578,1 53965U 22125B   24154.93065847  .00000473  00000-0  47806-4 0  9991,2 53965  53.2178 238.6833 0001159  93.7606 266.3518 15.08842115 91989,6917.874,95.437,540.541,538.937,0.0
53965.0,STARLINK-4578,PAYLOAD,2024-06-03 11:03:14,15.08839262,0.0001007,53.2171,236.3039,92.3981,267.7127,5.5264e-05,5.92e-06,0.0,0 STARLINK-4578,1 53965U 22125B   24155.46058302  .00000592  00000-0  55264-4 0  9997,2 53965  53.2171 236.3039 0001007  92.3981 267.7127 15.08839262 92136,6917.883,95.438,540.444,539.051,0.0
53965.0,STARLINK-4578,PAYLOAD,2024-06-03 22:10:56,15.08842612,0.0001029,53.2175,234.2224,89.3271,270.7839,6.4974e-05,7.47e-06,0.0,0 STARLINK-4578,1 53965U 22125B   24155.92426137  .00000747  00000-0  64974-4 0  9993,2 53965  53.2175 234.2224 0001029  89.3271 270.7839 15.08842612 92132,6917.872,95.437,540.449,539.026,0.0
53965.0,STARLINK-4578,PAYLOAD,2024-06-04 10:54:01,15.08843916,0.0001123,53.2167,231.8426,81.462,278.6499,9.9459e-05,1.296e-05,0.0,0 STARLINK-4578,1 53965U 22125B   24156.45418181  .00001296  00000-0  99459-4 0  9998,2 53965  53.2167 231.8426 0001123  81.4620 278.6499 15.08843916 92212,6917.868,95.437,540.51,538.957,0.0
53965.0,STARLINK-4578,PAYLOAD,2024-06-04 22:01:43,15.08846834,0.0001174,53.2172,229.7616,87.7962,272.3165,8.3694e-05,1.045e-05,0.0,0 STARLINK-4578,1 53965U 22125B   24156.91785954  .00001045  00000-0  83694-4 0  9990,2 53965  53.2172 229.7616 0001174  87.7962 272.3165 15.08846834 92289,6917.86,95.437,540.537,538.912,0.0
53965.0,STARLINK-4578,PAYLOAD,2024-06-05 12:20:11,15.08843497,0.0001078,53.2168,227.0841,81.0589,279.0525,9.1828e-05,1.174e-05,0.0,0 STARLINK-4578,1 53965U 22125B   24157.51402109  .00001174  00000-0  91828-4 0  9996,2 53965  53.2168 227.0841 0001078  81.0589 279.0525 15.08843497 92376,6917.87,95.437,540.48,538.989,0.0
53965.0,STARLINK-4578,PAYLOAD,2024-06-05 21:52:30,15.08842275,8.78e-05,53.217,225.2965,73.9324,286.1765,5.3276e-05,5.6e-06,0.0,0 STARLINK-4578,1 53965U 22125B   24157.91146158  .00000560  00000-0  53276-4 0  9992,2 53965  53.2170 225.2965 0000878  73.9324 286.1765 15.08842275 92435,6917.873,95.437,540.346,539.131,0.0
53965.0,STARLINK-4578,PAYLOAD,2024-06-06 04:14:03,15.08840333,0.0001263,53.2168,224.1118,74.1365,285.9766,7.7273e-05,9.42e-06,0.0,0 STARLINK-4578,1 53965U 22125B   24158.17642399  .00000942  00000-0  77273-4 0  9996,2 53965  53.2168 224.1118 0001263  74.1365 285.9766 15.08840333 92540,6917.879,95.438,540.618,538.871,0.0
53965.0,STARLINK-4578,PAYLOAD,2024-06-06 10:35:35,15.08837915,9.33e-05,53.216,222.9202,77.4762,282.6334,0.00012869,1.761e-05,0.0,0 STARLINK-4578,1 53965U 22125B   24158.44138341  .00001761  00000-0  12869-3 0  9992,2 53965  53.2160 222.9202 0000933  77.4762 282.6334 15.08837915 92516,6917.887,95.438,540.397,539.106,0.0
53965.0,STARLINK-4578,PAYLOAD,2024-06-07 08:50:59,15.08838295,0.0001023,53.216,218.7573,80.7649,279.3459,5.5713e-05,5.99e-06,0.0,0 STARLINK-4578,1 53965U 22125B   24159.36874440  .00000599  00000-0  55713-4 0  9995,2 53965  53.2160 218.7573 0001023  80.7649 279.3459 15.08838295 92728,6917.886,95.438,540.458,539.043,0.0
53965.0,STARLINK-4578,PAYLOAD,2024-06-07 21:34:04,15.0884164,0.000108,53.216,216.3792,75.1161,284.9951,-4.0073e-05,-9.26e-06,0.0,0 STARLINK-4578,1 53965U 22125B   24159.89866537 -.00000926  00000-0 -40073-4 0  9990,2 53965  53.2160 216.3792 0001080  75.1161 284.9951 15.08841640 92733,6917.875,95.437,540.488,538.993,0.0
53965.0,STARLINK-4578,PAYLOAD,2024-06-08 03:55:37,15.08832454,0.000112,53.2158,215.1903,71.73,288.3813,2.0417e-05,3.7e-07,0.0,0 STARLINK-4578,1 53965U 22125B   24160.16363113  .00000037  00000-0  20417-4 0  9995,2 53965  53.2158 215.1903 0001120  71.7300 288.3813 15.08832454 92843,6917.903,95.438,540.543,538.994,0.0
53965.0,STARLINK-4578,PAYLOAD,2024-06-08 10:17:09,15.08839681,0.0001209,53.2166,214.0008,78.8868,281.226,3.9692e-05,3.44e-06,0.0,0 STARLINK-4578,1 53965U 22125B   24160.42858656  .00000344  00000-0  39692-4 0  9991,2 53965  53.2166 214.0008 0001209  78.8868 281.2260 15.08839681 92882,6917.881,95.438,540.583,538.91,0.0
53965.0,STARLINK-4578,PAYLOAD,2024-06-08 13:27:56,15.08841509,0.0001219,53.2166,213.4056,80.7425,279.3705,5.0132e-05,5.1e-06,0.0,0 STARLINK-4578,1 53965U 22125B   24160.56106491  .00000510  00000-0  50132-4 0  9996,2 53965  53.2166 213.4056 0001219  80.7425 279.3705 15.08841509 92839,6917.876,95.437,540.584,538.897,0.0
53965.0,STARLINK-4578,PAYLOAD,2024-06-08 15:03:18,15.08844701,0.0001228,53.2169,213.1084,81.2164,278.8967,7.4765e-05,9.02e-06,0.0,0 STARLINK-4578,1 53965U 22125B   24160.62730201  .00000902  00000-0  74765-4 0  9998,2 53965  53.2169 213.1084 0001228  81.2164 278.8967 15.08844701 92848,6917.866,95.437,540.581,538.882,0.0
53965.0,STARLINK-4578,PAYLOAD,2024-06-09 10:07:57,15.08833821,0.0001241,53.217,209.538,94.1883,265.9251,-2.1502e-07,-2.91e-06,0.0,0 STARLINK-4578,1 53965U 22125B   24161.42219412 -.00000291  00000-0 -21502-6 0  9999,2 53965  53.2170 209.5380 0001241  94.1883 265.9251 15.08833821 93030,6917.899,95.438,540.623,538.906,0.0
53965.0,STARLINK-4578,PAYLOAD,2024-06-09 13:18:43,15.08834222,0.0001267,53.2169,208.9432,95.9167,264.197,1.8864e-06,-2.58e-06,0.0,0 STARLINK-4578,1 53965U 22125B   24161.55467427 -.00000258  00000-0  18864-5 0  9992,2 53965  53.2169 208.9432 0001267  95.9167 264.1970 15.08834222 92989,6917.898,95.438,540.64,538.887,0.0
53965.0,STARLINK-4578,PAYLOAD,2024-06-09 19:40:16,15.08834505,0.0001261,53.2172,207.7555,87.947,272.1667,8.6792e-05,1.093e-05,0.0,0 STARLINK-4578,1 53965U 22125B   24161.81963327  .00001093  00000-0  86792-4 0  9992,2 53965  53.2172 207.7555 0001261  87.9470 272.1667 15.08834505 93020,6917.897,95.438,540.635,538.89,0.0
